ORBCOMM FM24            
1 25478U 98053D   24212.74984217  .00002655  00000+0  95326-3 0  9999
2 25478  45.0095 351.0224 0000708 160.9563 199.1311 14.36021304351203
ORBCOMM FM25            
1 25479U 98053E   24212.71722422  .00002228  00000+0  80778-3 0  9996
2 25479  45.0094 349.4266 0002779  98.4309 261.6853 14.36006468351494
ORBCOMM FM26            
1 25480U 98053F   24212.68704685  .00001869  00000+0  69398-3 0  9990
2 25480  45.0091 344.0463 0005190 112.2270 247.9128 14.35396212351428
ORBCOMM FM27            
1 25481U 98053G   24212.84517179  .00002647  00000+0  95086-3 0  9997
2 25481  45.0069 349.0826 0001947 213.6953 146.3771 14.35994499351441
ORBCOMM FM28            
1 25482U 98053H   24212.59903389  .00001873  00000+0  68160-3 0  9995
2 25482  45.0063 288.4510 0003228 163.4601 196.6352 14.36403874352254
ORBCOMM FM30            
1 25980U 99065A   24212.91973345  .00002018  00000+0  74332-3 0  9997
2 25980  45.0310 168.5562 0005264 215.8420 144.2075 14.35525350288252
ORBCOMM FM31            
1 25981U 99065B   24213.16393772  .00001986  00000+0  73247-3 0  9993
2 25981  45.0225 161.0403 0003432 255.1091 104.9376 14.35516445288810
